[{"OBJECT_NAME":"STARLINK-5580","OBJECT_ID":"2023-028H","EPOCH":"2026-03-09T22:04:41.401632","MEAN_MOTION":14.98323971,"ECCENTRICITY":0.00032696,"INCLINATION":69.9985,"RA_OF_ASC_NODE":243.9125,"ARG_OF_PERICENTER":267.398,"MEAN_ANOMALY":92.6805,"EPHEMERIS_TYPE":0,"CLASSIFICATION_TYPE":"U","NORAD_CAT_ID":55748,"ELEMENT_SET_NO":999,"REV_AT_EPOCH":16607,"BSTAR":-0.00011136482,"MEAN_MOTION_DOT":-1.421e-5,"MEAN_MOTION_DDOT":0},{"OBJECT_NAME":"CZ-6A DEB","OBJECT_ID":"2024-140KN","EPOCH":"2026-03-09T13:37:52.587264","MEAN_MOTION":14.78327521,"ECCENTRICITY":0.01349,"INCLINATION":88.7947,"RA_OF_ASC_NODE":265.1899,"ARG_OF_PERICENTER":188.1767,"MEAN_ANOMALY":171.726,"EPHEMERIS_TYPE":0,"CLASSIFICATION_TYPE":"U","NORAD_CAT_ID":60883,"ELEMENT_SET_NO":999,"REV_AT_EPOCH":8325,"BSTAR":0.00065033,"MEAN_MOTION_DOT":5.532e-5,"MEAN_MOTION_DDOT":0}]
